{
    "links": {
        "self": "http://www.neowsapp.com/rest/v1/neo/54017259?api_key=iIulBulltgU6a56xZRHN4H3l9WmuAYTsLGpBGhQ2"
    },
    "id": "54017259",
    "neo_reference_id": "54017259",
    "name": "(2020 KN5)",
    "designation": "2020 KN5",
    "nasa_jpl_url": "http://ssd.jpl.nasa.gov/sbdb.cgi?sstr=54017259",
    "absolute_magnitude_h": 25.195,
    "estimated_diameter": {
        "kilometers": {
            "estimated_diameter_min": 0.02429713,
            "estimated_diameter_max": 0.0543300342
        },
        "meters": {
            "estimated_diameter_min": 24.2971299583,
            "estimated_diameter_max": 54.3300342449
        },
        "miles": {
            "estimated_diameter_min": 0.0150975319,
            "estimated_diameter_max": 0.0337591077
        },
        "feet": {
            "estimated_diameter_min": 79.7149958523,
            "estimated_diameter_max": 178.2481495519
        }
    },
    "is_potentially_hazardous_asteroid": false,
    "close_approach_data": [
        {
            "close_approach_date": "1957-06-07",
            "close_approach_date_full": "1957-Jun-07 04:40",
            "epoch_date_close_approach": -396645600000,
            "relative_velocity": {
                "kilometers_per_second": "11.6422541219",
                "kilometers_per_hour": "41912.1148387774",
                "miles_per_hour": "26042.5582452392"
            },
            "miss_distance": {
                "astronomical": "0.0734071506",
                "lunar": "28.5553815834",
                "kilometers": "10981553.372529222",
                "miles": "6823620.8501863836"
            },
            "orbiting_body": "Earth"
        },
        {
            "close_approach_date": "2020-06-04",
            "close_approach_date_full": "2020-Jun-04 23:14",
            "epoch_date_close_approach": 1591312440000,
            "relative_velocity": {
                "kilometers_per_second": "12.6613214795",
                "kilometers_per_hour": "45580.7573263674",
                "miles_per_hour": "28322.1100175976"
            },
            "miss_distance": {
                "astronomical": "0.0413754866",
                "lunar": "16.0950642874",
                "kilometers": "6189684.665573542",
                "miles": "3846091.7055451996"
            },
            "orbiting_body": "Earth"
        },
        {
            "close_approach_date": "2020-08-21",
            "close_approach_date_full": "2020-Aug-21 23:02",
            "epoch_date_close_approach": 1598050920000,
            "relative_velocity": {
                "kilometers_per_second": "12.7846135647",
                "kilometers_per_hour": "46024.6088330842",
                "miles_per_hour": "28597.9020829794"
            },
            "miss_distance": {
                "astronomical": "0.1437915292",
                "lunar": "55.9349048588",
                "kilometers": "21510906.492362804",
                "miles": "13366257.4927585352"
            },
            "orbiting_body": "Venus"
        }
    ],
    "orbital_data": {
        "orbit_id": "3",
        "orbit_determination_date": "2020-06-01 06:00:09",
        "first_observation_date": "2020-05-24",
        "last_observation_date": "2020-05-31",
        "data_arc_in_days": 7,
        "observations_used": 34,
        "orbit_uncertainty": "8",
        "minimum_orbit_intersection": ".0166758",
        "jupiter_tisserand_invariant": "4.981",
        "epoch_osculation": "2458994.5",
        "eccentricity": ".4108316292414403",
        "semi_major_axis": "1.26977409260863",
        "inclination": "11.22616742414042",
        "ascending_node_longitude": "65.36012652200181",
        "orbital_period": "522.6225199319695",
        "perihelion_distance": ".7481107333736553",
        "perihelion_argument": "273.8559292138777",
        "aphelion_distance": "1.791437451843605",
        "perihelion_time": "2459065.689883965212",
        "mean_anomaly": "310.9620093852588",
        "mean_motion": ".6888336921395231",
        "equinox": "J2000",
        "orbit_class": {
            "orbit_class_type": "APO",
            "orbit_class_description": "Near-Earth asteroid orbits which cross the Earth’s orbit similar to that of 1862 Apollo",
            "orbit_class_range": "a (semi-major axis) > 1.0 AU; q (perihelion) < 1.017 AU"
        }
    },
    "is_sentry_object": false
}